start=new Date('2023-06-27T00:00:00.000Z').valueOf();
sats=[{"REF_FRAME":"TEME","EPOCH":"2023-06-26T08:59:32.323488","BSTAR":"-0.00004797500000","CLASSIFICATION_TYPE":"U","TLE_LINE2":"2 53178  53.2163 276.3512 0001234  94.9696 265.1437 15.08832580 52921","RA_OF_ASC_NODE":"276.3512","FILE":"3943248","PERIOD":"95.438","MEAN_MOTION":"15.08832580","ELEMENT_SET_NO":"999","ARG_OF_PERICENTER":"94.9696","OBJECT_NAME":"STARLINK-4280","NORAD_CAT_ID":"53178","MEAN_ANOMALY":"265.1437","DECAY_DATE":null,"REV_AT_EPOCH":"5292","TLE_LINE1":"1 53178U 22083AY  23177.37467967 -.00001051  00000-0 -47975-4 0  9993","OBJECT_TYPE":"PAYLOAD","CENTER_NAME":"EARTH","LAUNCH_DATE":"2022-07-17","SITE":"AFETR","PERIAPSIS":"538.914","MEAN_MOTION_DOT":"-0.00001051","SEMIMAJOR_AXIS":"6917.903","TIME_SYSTEM":"UTC","ECCENTRICITY":"0.00012340","APOAPSIS":"540.622","GP_ID":"234563914","MEAN_ELEMENT_THEORY":"SGP4","MEAN_MOTION_DDOT":"0.0000000000000","OBJECT_ID":"2022-083AY","INCLINATION":"53.2163","EPHEMERIS_TYPE":"0","RCS_SIZE":"LARGE","COUNTRY_CODE":"US"},{"OBJECT_TYPE":"PAYLOAD","REV_AT_EPOCH":"5350","TLE_LINE1":"1 53179U 22083AZ  23177.36727540  .00003106  00000-0  21318-3 0  9992","LAUNCH_DATE":"2022-07-17","CENTER_NAME":"EARTH","SITE":"AFETR","MEAN_MOTION_DOT":"0.00003106","PERIAPSIS":"538.957","TIME_SYSTEM":"UTC","SEMIMAJOR_AXIS":"6917.894","APOAPSIS":"540.561","ECCENTRICITY":"0.00011590","GP_ID":"234564438","MEAN_ELEMENT_THEORY":"SGP4","MEAN_MOTION_DDOT":"0.0000000000000","OBJECT_ID":"2022-083AZ","INCLINATION":"53.2145","EPHEMERIS_TYPE":"0","COUNTRY_CODE":"US","RCS_SIZE":"LARGE","REF_FRAME":"TEME","EPOCH":"2023-06-26T08:48:52.594560","BSTAR":"0.00021318000000","CLASSIFICATION_TYPE":"U","RA_OF_ASC_NODE":"235.9830","TLE_LINE2":"2 53179  53.2145 235.9830 0001159  80.7244 279.3879 15.08835580 53509","FILE":"3943276","MEAN_MOTION":"15.08835580","PERIOD":"95.438","ARG_OF_PERICENTER":"80.7244","ELEMENT_SET_NO":"999","OBJECT_NAME":"STARLINK-4276","NORAD_CAT_ID":"53179","MEAN_ANOMALY":"279.3879","DECAY_DATE":null},{"EPHEMERIS_TYPE":"0","RCS_SIZE":"LARGE","COUNTRY_CODE":"US","MEAN_ELEMENT_THEORY":"SGP4","MEAN_MOTION_DDOT":"0.0000000000000","GP_ID":"234563906","INCLINATION":"53.2147","OBJECT_ID":"2022-083BA","PERIAPSIS":"538.999","MEAN_MOTION_DOT":"0.00001785","SITE":"AFETR","APOAPSIS":"540.472","ECCENTRICITY":"0.00010650","TIME_SYSTEM":"UTC","SEMIMAJOR_AXIS":"6917.870","CENTER_NAME":"EARTH","LAUNCH_DATE":"2022-07-17","TLE_LINE1":"1 53180U 22083BA  23177.38665135  .00001785  00000-0  13020-3 0  9999","REV_AT_EPOCH":"5350","OBJECT_TYPE":"PAYLOAD","OBJECT_NAME":"STARLINK-4258","ELEMENT_SET_NO":"999","ARG_OF_PERICENTER":"87.6142","DECAY_DATE":null,"MEAN_ANOMALY":"272.4972","NORAD_CAT_ID":"53180","PERIOD":"95.437","MEAN_MOTION":"15.08843260","BSTAR":"0.00013020000000","EPOCH":"2023-06-26T09:16:46.676640","FILE":"3943248","TLE_LINE2":"2 53180  53.2147 236.1007 0001065  87.6142 272.4972 15.08843260 53503","RA_OF_ASC_NODE":"236.1007","CLASSIFICATION_TYPE":"U","REF_FRAME":"TEME"},{"COUNTRY_CODE":"US","RCS_SIZE":"LARGE","EPHEMERIS_TYPE":"0","OBJECT_ID":"2022-083BB","INCLINATION":"53.2167","GP_ID":"234564350","MEAN_MOTION_DDOT":"0.0000000000000","MEAN_ELEMENT_THEORY":"SGP4","TIME_SYSTEM":"UTC","SEMIMAJOR_AXIS":"6917.899","APOAPSIS":"540.554","ECCENTRICITY":"0.00011420","SITE":"AFETR","MEAN_MOTION_DOT":"-0.00000116","PERIAPSIS":"538.974","OBJECT_TYPE":"PAYLOAD","REV_AT_EPOCH":"5350","TLE_LINE1":"1 53181U 22083BB  23177.38569725 -.00000116  00000-0  10823-4 0  9995","CENTER_NAME":"EARTH","LAUNCH_DATE":"2022-07-17","MEAN_ANOMALY":"233.1894","NORAD_CAT_ID":"53181","DECAY_DATE":null,"ELEMENT_SET_NO":"999","ARG_OF_PERICENTER":"126.9203","OBJECT_NAME":"STARLINK-4273","MEAN_MOTION":"15.08833846","PERIOD":"95.438","CLASSIFICATION_TYPE":"U","TLE_LINE2":"2 53181  53.2167 236.0945 0001142 126.9203 233.1894 15.08833846 53503","RA_OF_ASC_NODE":"236.0945","FILE":"3943272","EPOCH":"2023-06-26T09:15:24.242400","BSTAR":"0.00001082300000","REF_FRAME":"TEME"},{"INCLINATION":"53.2148","OBJECT_ID":"2022-083BC","MEAN_ELEMENT_THEORY":"SGP4","MEAN_MOTION_DDOT":"0.0000000000000","GP_ID":"234563417","RCS_SIZE":"LARGE","COUNTRY_CODE":"US","EPHEMERIS_TYPE":"0","LAUNCH_DATE":"2022-07-17","CENTER_NAME":"EARTH","TLE_LINE1":"1 53182U 22083BC  23177.41194142  .00002007  00000-0  14413-3 0  9995","REV_AT_EPOCH":"5329","OBJECT_TYPE":"PAYLOAD","APOAPSIS":"540.522","ECCENTRICITY":"0.00011070","SEMIMAJOR_AXIS":"6917.891","TIME_SYSTEM":"UTC","PERIAPSIS":"538.990","MEAN_MOTION_DOT":"0.00002007","SITE":"AFETR","PERIOD":"95.438","MEAN_MOTION":"15.08836628","DECAY_DATE":null,"NORAD_CAT_ID":"53182","MEAN_ANOMALY":"268.6291","OBJECT_NAME":"STARLINK-4278","ARG_OF_PERICENTER":"91.4827","ELEMENT_SET_NO":"999","REF_FRAME":"TEME","RA_OF_ASC_NODE":"251.1741","TLE_LINE2":"2 53182  53.2148 251.1741 0001107  91.4827 268.6291 15.08836628 53295","FILE":"3943238","CLASSIFICATION_TYPE":"U","BSTAR":"0.00014413000000","EPOCH":"2023-06-26T09:53:11.738688"},{"MEAN_MOTION":"15.08829946","PERIOD":"95.438","DECAY_DATE":null,"MEAN_ANOMALY":"268.2978","NORAD_CAT_ID":"53183","OBJECT_NAME":"STARLINK-4268","ELEMENT_SET_NO":"999","ARG_OF_PERICENTER":"91.8156","REF_FRAME":"TEME","TLE_LINE2":"2 53183  53.2167 241.0627 0001236  91.8156 268.2978 15.08829946 53439","FILE":"3943239","RA_OF_ASC_NODE":"241.0627","CLASSIFICATION_TYPE":"U","BSTAR":"-0.00002964000000","EPOCH":"2023-06-26T10:05:06.388512","INCLINATION":"53.2167","OBJECT_ID":"2022-083BD","MEAN_ELEMENT_THEORY":"SGP4","MEAN_MOTION_DDOT":"0.0000000000000","GP_ID":"234563436","COUNTRY_CODE":"US","RCS_SIZE":"LARGE","EPHEMERIS_TYPE":"0","LAUNCH_DATE":"2022-07-17","CENTER_NAME":"EARTH","OBJECT_TYPE":"PAYLOAD","REV_AT_EPOCH":"5343","TLE_LINE1":"1 53183U 22083BD  23177.42021283 -.00000759  00000-0 -29640-4 0  9995","APOAPSIS":"540.631","ECCENTRICITY":"0.00012360","SEMIMAJOR_AXIS":"6917.911","TIME_SYSTEM":"UTC","MEAN_MOTION_DOT":"-0.00000759","PERIAPSIS":"538.921","SITE":"AFETR"},{"ECCENTRICITY":"0.00011320","APOAPSIS":"540.521","TIME_SYSTEM":"UTC","SEMIMAJOR_AXIS":"6917.873","MEAN_MOTION_DOT":"-0.00003928","PERIAPSIS":"538.955","SITE":"AFETR","CENTER_NAME":"EARTH","LAUNCH_DATE":"2022-07-17","OBJECT_TYPE":"PAYLOAD","REV_AT_EPOCH":"5350","TLE_LINE1":"1 53184U 22083BE  23177.36358544 -.00003928  00000-0 -22885-3 0  9996","COUNTRY_CODE":"US","RCS_SIZE":"LARGE","EPHEMERIS_TYPE":"0","INCLINATION":"53.2146","OBJECT_ID":"2022-083BE","MEAN_ELEMENT_THEORY":"SGP4","MEAN_MOTION_DDOT":"0.0000000000000","GP_ID":"234563433","RA_OF_ASC_NODE":"235.9866","TLE_LINE2":"2 53184  53.2146 235.9866 0001132  80.5394 279.5726 15.08842481 53501","FILE":"3943239","CLASSIFICATION_TYPE":"U","BSTAR":"-0.00022885000000","EPOCH":"2023-06-26T08:43:33.782016","REF_FRAME":"TEME","DECAY_DATE":null,"MEAN_ANOMALY":"279.5726","NORAD_CAT_ID":"53184","OBJECT_NAME":"STARLINK-4257","ARG_OF_PERICENTER":"80.5394","ELEMENT_SET_NO":"999","MEAN_MOTION":"15.08842481","PERIOD":"95.437"},{"MEAN_ELEMENT_THEORY":"SGP4","MEAN_MOTION_DDOT":"0.0000000000000","GP_ID":"234550432","INCLINATION":"97.6553","OBJECT_ID":"2022-084A","EPHEMERIS_TYPE":"0","COUNTRY_CODE":"US","RCS_SIZE":"LARGE","CENTER_NAME":"EARTH","LAUNCH_DATE":"2022-07-22","OBJECT_TYPE":"PAYLOAD","REV_AT_EPOCH":"5146","TLE_LINE1":"1 53189U 22084A   23176.66544731  .00001068  00000-0  87698-4 0  9994","MEAN_MOTION_DOT":"0.00001068","PERIAPSIS":"562.669","SITE":"AFWTR","ECCENTRICITY":"0.00005000","APOAPSIS":"563.363","SEMIMAJOR_AXIS":"6941.151","TIME_SYSTEM":"UTC","MEAN_MOTION":"15.01258592","PERIOD":"95.920","OBJECT_NAME":"STARLINK-4391","ARG_OF_PERICENTER":"123.7170","ELEMENT_SET_NO":"999","DECAY_DATE":null,"MEAN_ANOMALY":"236.4102","NORAD_CAT_ID":"53189","REF_FRAME":"TEME","BSTAR":"0.00008769800000","EPOCH":"2023-06-25T15:58:14.647584","TLE_LINE2":"2 53189  97.6553 237.6028 0000500 123.7170 236.4102 15.01258592 51469","RA_OF_ASC_NODE":"237.6028","FILE":"3942679","CLASSIFICATION_TYPE":"U"},{"MEAN_ANOMALY":"262.6566","NORAD_CAT_ID":"53190","DECAY_DATE":null,"ELEMENT_SET_NO":"999","ARG_OF_PERICENTER":"97.4834","OBJECT_NAME":"STARLINK-4332","PERIOD":"95.920","MEAN_MOTION":"15.01246541","CLASSIFICATION_TYPE":"U","FILE":"3943270","TLE_LINE2":"2 53190  97.6542 238.3565 0001546  97.4834 262.6566 15.01246541 51576","RA_OF_ASC_NODE":"238.3565","EPOCH":"2023-06-26T10:13:39.081792","BSTAR":"-0.00032041000000","REF_FRAME":"TEME","RCS_SIZE":"LARGE","COUNTRY_CODE":"US","EPHEMERIS_TYPE":"0","OBJECT_ID":"2022-084B","INCLINATION":"97.6542","GP_ID":"234564328","MEAN_ELEMENT_THEORY":"SGP4","MEAN_MOTION_DDOT":"0.0000000000000","SEMIMAJOR_AXIS":"6941.188","TIME_SYSTEM":"UTC","APOAPSIS":"564.126","ECCENTRICITY":"0.00015460","SITE":"AFWTR","PERIAPSIS":"561.980","MEAN_MOTION_DOT":"-0.00004171","TLE_LINE1":"1 53190U 22084B   23177.42614678 -.00004171  00000-0 -32041-3 0  9990","REV_AT_EPOCH":"5157","OBJECT_TYPE":"PAYLOAD","CENTER_NAME":"EARTH","LAUNCH_DATE":"2022-07-22"},{"OBJECT_TYPE":"PAYLOAD","TLE_LINE1":"1 53191U 22084C   23177.65388144  .00001377  00000-0  11179-3 0  9994","REV_AT_EPOCH":"5160","LAUNCH_DATE":"2022-07-22","CENTER_NAME":"EARTH","SITE":"AFWTR","MEAN_MOTION_DOT":"0.00001377","PERIAPSIS":"561.990","TIME_SYSTEM":"UTC","SEMIMAJOR_AXIS":"6941.158","ECCENTRICITY":"0.00014880","APOAPSIS":"564.056","GP_ID":"234572004","MEAN_ELEMENT_THEORY":"SGP4","MEAN_MOTION_DDOT":"0.0000000000000","OBJECT_ID":"2022-084C","INCLINATION":"97.6581","EPHEMERIS_TYPE":"0","COUNTRY_CODE":"US","RCS_SIZE":"LARGE","REF_FRAME":"TEME","EPOCH":"2023-06-26T15:41:35.356416","BSTAR":"0.00011179000000","CLASSIFICATION_TYPE":"U","FILE":"3943576","TLE_LINE2":"2 53191  97.6581 238.5996 0001488 104.1649 255.9741 15.01256290 51601","RA_OF_ASC_NODE":"238.5996","MEAN_MOTION":"15.01256290","PERIOD":"95.920","ARG_OF_PERICENTER":"104.1649","ELEMENT_SET_NO":"999","OBJECT_NAME":"STARLINK-4369","NORAD_CAT_ID":"53191","MEAN_ANOMALY":"255.9741","DECAY_DATE":null}];
